{
    "links": {
        "self": "http://www.neowsapp.com/rest/v1/neo/54051256?api_key=iIulBulltgU6a56xZRHN4H3l9WmuAYTsLGpBGhQ2"
    },
    "id": "54051256",
    "neo_reference_id": "54051256",
    "name": "(2020 QE2)",
    "designation": "2020 QE2",
    "nasa_jpl_url": "http://ssd.jpl.nasa.gov/sbdb.cgi?sstr=54051256",
    "absolute_magnitude_h": 25.031,
    "estimated_diameter": {
        "kilometers": {
            "estimated_diameter_min": 0.0262032389,
            "estimated_diameter_max": 0.0585922234
        },
        "meters": {
            "estimated_diameter_min": 26.2032389117,
            "estimated_diameter_max": 58.5922234371
        },
        "miles": {
            "estimated_diameter_min": 0.0162819328,
            "estimated_diameter_max": 0.0364075085
        },
        "feet": {
            "estimated_diameter_min": 85.9686343509,
            "estimated_diameter_max": 192.2317103414
        }
    },
    "is_potentially_hazardous_asteroid": false,
    "close_approach_data": [
        {
            "close_approach_date": "2018-02-08",
            "close_approach_date_full": "2018-Feb-08 01:50",
            "epoch_date_close_approach": 1518054600000,
            "relative_velocity": {
                "kilometers_per_second": "18.7178647202",
                "kilometers_per_hour": "67384.3129928111",
                "miles_per_hour": "41869.991592672"
            },
            "miss_distance": {
                "astronomical": "0.2957301423",
                "lunar": "115.0390253547",
                "kilometers": "44240599.382876901",
                "miles": "27489833.7359911938"
            },
            "orbiting_body": "Earth"
        },
        {
            "close_approach_date": "2020-08-25",
            "close_approach_date_full": "2020-Aug-25 02:41",
            "epoch_date_close_approach": 1598323260000,
            "relative_velocity": {
                "kilometers_per_second": "12.6362027751",
                "kilometers_per_hour": "45490.3299904439",
                "miles_per_hour": "28265.9219876733"
            },
            "miss_distance": {
                "astronomical": "0.0511560857",
                "lunar": "19.8997173373",
                "kilometers": "7652841.458257459",
                "miles": "4755255.1780485742"
            },
            "orbiting_body": "Earth"
        }
    ],
    "orbital_data": {
        "orbit_id": "2",
        "orbit_determination_date": "2020-08-21 06:34:16",
        "first_observation_date": "2020-08-17",
        "last_observation_date": "2020-08-21",
        "data_arc_in_days": 4,
        "observations_used": 20,
        "orbit_uncertainty": "8",
        "minimum_orbit_intersection": ".0151412",
        "jupiter_tisserand_invariant": "5.010",
        "epoch_osculation": "2459079.5",
        "eccentricity": ".3486001535557984",
        "semi_major_axis": "1.266329834889485",
        "inclination": "13.02930813038912",
        "ascending_node_longitude": "331.9907973876848",
        "orbital_period": "520.4975449641655",
        "perihelion_distance": ".8248870599947218",
        "perihelion_argument": "77.83641365024457",
        "aphelion_distance": "1.707772609784248",
        "perihelion_time": "2459143.699983194948",
        "mean_anomaly": "315.5963439716656",
        "mean_motion": ".6916459135744527",
        "equinox": "J2000",
        "orbit_class": {
            "orbit_class_type": "APO",
            "orbit_class_description": "Near-Earth asteroid orbits which cross the Earth’s orbit similar to that of 1862 Apollo",
            "orbit_class_range": "a (semi-major axis) > 1.0 AU; q (perihelion) < 1.017 AU"
        }
    },
    "is_sentry_object": false
}